ONEWEB-0132             
1 47278U 20100W   26167.75785495 -.00000382  00000+0 -10961-2 0  9996
2 47278  87.8939 350.7574 0001716  90.3544 269.7781 13.12443166264525
ONEWEB-0133             
1 47279U 20100X   26167.77465028 -.00000540  00000+0 -15355-2 0  9994
2 47279  87.8953 350.7304 0001686  89.5721 270.5601 13.12443040264685
ONEWEB-0134             
1 47280U 20100Y   26167.74430556  .00000139  00000+0  35020-3 0  9995
2 47280  87.8952 350.7333 0001639  98.5830 261.5485 13.12440169264653
ONEWEB-0135             
1 47281U 20100Z   26167.79173490  .00000280  00000+0  74321-3 0  9996
2 47281  87.8938 350.7470 0001542  96.2783 263.8521 13.12445308264684
ONEWEB-0136             
1 47282U 20100AA  26167.73413745  .00000441  00000+0  11906-2 0  9999
2 47282  87.8947 350.7396 0001605  99.8842 260.2468 13.12443559264606
ONEWEB-0137             
1 47283U 20100AB  26167.76801301 -.00000538  00000+0 -15322-2 0  9997
2 47283  87.8951 350.7429 0001957  88.8638 271.2715 13.12442110264519
ONEWEB-0138             
1 47284U 20100AC  26167.74599978  .00000076  00000+0  17697-3 0  9993
2 47284  87.8947 350.7527 0001707  97.7678 262.3644 13.12442731264599
ONEWEB-0139             
1 47285U 20100AD  26167.78678906  .00000048  00000+0  99183-4 0  9997
2 47285  87.8946 350.7311 0001802  92.2176 267.9159 13.12445412264679
ONEWEB-0140             
1 47286U 20100AE  26167.74091610  .00000243  00000+0  63924-3 0  9995
2 47286  87.8948 350.7309 0001647  87.7935 272.3382 13.12442550264632
ONEWEB-0141             
1 47287U 20100AF  26167.78651207  .00000063  00000+0  14006-3 0  9991
2 47287  87.8947 350.7270 0002131  89.5936 270.5437 13.12445584264629
ONEWEB-0142             
1 47288U 20100AG  26167.77495147 -.00000331  00000+0 -95597-3 0  9994
2 47288  87.8943 350.7510 0002159  98.2024 261.9349 13.12443253264614
ONEWEB-0143             
1 47289U 20100AH  26167.55624663  .00000129  00000+0  32396-3 0  9999
2 47289  87.8947 350.7931 0001843  90.5490 269.5849 13.12445686264562
ONEWEB-0144             
1 47290U 20100AJ  26167.83240684 -.00000257  00000+0 -75004-3 0  9996
2 47290  87.8951 350.7120 0001854 102.7527 257.3809 13.12443300264526
ONEWEB-0145             
1 47291U 20100AK  26167.80360132  .00000463  00000+0  12504-2 0  9997
2 47291  87.8940 350.7457 0001846  93.4348 266.6992 13.12444125264719
ONEWEB-0146             
1 47292U 20100AL  26167.80021587  .00000483  00000+0  13061-2 0  9997
2 47292  87.8946 350.7381 0001695  80.2689 279.8631 13.12444435264626
ONEWEB-0147             
1 47293U 20100AM  26167.53760658 -.00000562  00000+0 -15986-2 0  9995
2 47293  87.8949 350.7718 0001679  92.1838 267.9483 13.12443373264481
ONEWEB-0115             
1 48042U 21025A   26167.71865737  .00000371  00000+0  98162-3 0  9993
2 48042  87.8957 320.3165 0001770  94.7354 265.3978 13.13470531253537
ONEWEB-0152             
1 48043U 21025B   26167.65601667  .00000269  00000+0  70161-3 0  9992
2 48043  87.8962 320.3255 0001730  93.3723 266.7604 13.13470189253489
ONEWEB-0153             
1 48044U 21025C   26167.86254066  .00000163  00000+0  41024-3 0  9992
2 48044  87.8952 320.2876 0001882  98.7125 261.4218 13.13470829253507
ONEWEB-0154             
1 48045U 21025D   26167.85915639  .00000134  00000+0  33270-3 0  9994
2 48045  87.8958 320.2857 0001754  98.1977 261.9351 13.13470384253464
ONEWEB-0116             
1 48046U 21025E   26167.66954928 -.00000165  00000+0 -48622-3 0  9991
2 48046  87.8961 320.3201 0001708  93.9803 266.1521 13.13468230253589
ONEWEB-0150             
1 48047U 21025F   26167.72203970  .00000362  00000+0  95717-3 0  9997
2 48047  87.8962 320.3072 0001998  93.8407 266.2950 13.13470614253482
ONEWEB-0107             
1 48048U 21025G   26167.72373341  .00000279  00000+0  72817-3 0  9991
2 48048  87.8963 320.3028 0001990 102.4848 257.6504 13.13469716253461
ONEWEB-0101             
1 48049U 21025H   26167.83883488 -.00000367  00000+0 -10386-2 0  9994
2 48049  87.8951 320.2953 0001794 101.7731 258.3600 13.13470666253450
ONEWEB-0113             
1 48050U 21025J   26167.86330601  .00000181  00000+0  45887-3 0  9990
2 48050  87.8957 320.2010 0001849  93.5766 266.5575 13.13894128253566
ONEWEB-0112             
1 48051U 21025K   26167.65263191  .00000316  00000+0  82947-3 0  9995
2 48051  87.8963 320.3148 0001789 104.8256 255.3071 13.13470127253522
ONEWEB-0156             
1 48052U 21025L   26167.66109131  .00000104  00000+0  24865-3 0  9990
2 48052  87.8962 320.3231 0001951  98.0998 262.0353 13.13469736253503
ONEWEB-0161             
1 48053U 21025M   26167.86423255  .00000232  00000+0  59947-3 0  9990
2 48053  87.8960 320.2841 0001983  99.5576 260.5778 13.13471142253464
ONEWEB-0158             
1 48054U 21025N   26167.67125050 -.00000136  00000+0 -40597-3 0  9998
2 48054  87.8962 320.3194 0001591  95.4757 264.6554 13.13471705253563
ONEWEB-0157             
1 48055U 21025P   26167.84900402 -.00000138  00000+0 -41241-3 0  9999
2 48055  87.8957 320.2900 0002085 106.3782 253.7577 13.13470293253522
