OBJECT_NAME,OBJECT_ID,EPOCH,MEAN_MOTION,ECCENTRICITY,INCLINATION,RA_OF_ASC_NODE,ARG_OF_PERICENTER,MEAN_ANOMALY,EPHEMERIS_TYPE,CLASSIFICATION_TYPE,NORAD_CAT_ID,ELEMENT_SET_NO,REV_AT_EPOCH,BSTAR,MEAN_MOTION_DOT,MEAN_MOTION_DDOT
ONEWEB-0132,2020-100W,2026-06-16T18:11:18.667680,13.12443166,.0001716,87.8939,350.7574,90.3544,269.7781,0,U,47278,999,26452,-.10961E-2,-.382E-5,0
ONEWEB-0133,2020-100X,2026-06-16T18:35:29.784192,13.12443040,.0001686,87.8953,350.7304,89.5721,270.5601,0,U,47279,999,26468,-.15355E-2,-.54E-5,0
ONEWEB-0134,2020-100Y,2026-06-16T17:51:48.000384,13.12440169,.0001639,87.8952,350.7333,98.5830,261.5485,0,U,47280,999,26465,.3502E-3,.139E-5,0
ONEWEB-0135,2020-100Z,2026-06-16T19:00:05.895360,13.12445308,.0001542,87.8938,350.7470,96.2783,263.8521,0,U,47281,999,26468,.74321E-3,.28E-5,0
ONEWEB-0136,2020-100AA,2026-06-16T17:37:09.475680,13.12443559,.0001605,87.8947,350.7396,99.8842,260.2468,0,U,47282,999,26460,.11906E-2,.441E-5,0
ONEWEB-0137,2020-100AB,2026-06-16T18:25:56.324064,13.12442110,.0001957,87.8951,350.7429,88.8638,271.2715,0,U,47283,999,26451,-.15322E-2,-.538E-5,0
ONEWEB-0138,2020-100AC,2026-06-16T17:54:14.380992,13.12442731,.0001707,87.8947,350.7527,97.7678,262.3644,0,U,47284,999,26459,.17697E-3,.76E-6,0
ONEWEB-0139,2020-100AD,2026-06-16T18:52:58.574784,13.12445412,.0001802,87.8946,350.7311,92.2176,267.9159,0,U,47285,999,26467,.99183E-4,.48E-6,0
ONEWEB-0140,2020-100AE,2026-06-16T17:46:55.151040,13.12442550,.0001647,87.8948,350.7309,87.7935,272.3382,0,U,47286,999,26463,.63924E-3,.243E-5,0
ONEWEB-0141,2020-100AF,2026-06-16T18:52:34.642848,13.12445584,.0002131,87.8947,350.7270,89.5936,270.5437,0,U,47287,999,26462,.14006E-3,.63E-6,0
ONEWEB-0142,2020-100AG,2026-06-16T18:35:55.807008,13.12443253,.0002159,87.8943,350.7510,98.2024,261.9349,0,U,47288,999,26461,-.95597E-3,-.331E-5,0
ONEWEB-0143,2020-100AH,2026-06-16T13:20:59.708832,13.12445686,.0001843,87.8947,350.7931,90.5490,269.5849,0,U,47289,999,26456,.32396E-3,.129E-5,0
ONEWEB-0144,2020-100AJ,2026-06-16T19:58:39.950976,13.12443300,.0001854,87.8951,350.7120,102.7527,257.3809,0,U,47290,999,26452,-.75004E-3,-.257E-5,0
ONEWEB-0145,2020-100AK,2026-06-16T19:17:11.154048,13.12444125,.0001846,87.8940,350.7457,93.4348,266.6992,0,U,47291,999,26471,.12504E-2,.463E-5,0
ONEWEB-0146,2020-100AL,2026-06-16T19:12:18.651168,13.12444435,.0001695,87.8946,350.7381,80.2689,279.8631,0,U,47292,999,26462,.13061E-2,.483E-5,0
ONEWEB-0147,2020-100AM,2026-06-16T12:54:09.208512,13.12443373,.0001679,87.8949,350.7718,92.1838,267.9483,0,U,47293,999,26448,-.1598605E-2,-.562E-5,0
ONEWEB-0115,2021-025A,2026-06-16T17:14:51.996768,13.13470531,.000177,87.8957,320.3165,94.7354,265.3978,0,U,48042,999,25353,.98162E-3,.371E-5,0
ONEWEB-0152,2021-025B,2026-06-16T15:44:39.840288,13.13470189,.000173,87.8962,320.3255,93.3723,266.7604,0,U,48043,999,25348,.70161E-3,.269E-5,0
ONEWEB-0153,2021-025C,2026-06-16T20:42:03.513024,13.13470829,.0001882,87.8952,320.2876,98.7125,261.4218,0,U,48044,999,25350,.41024E-3,.163E-5,0
ONEWEB-0154,2021-025D,2026-06-16T20:37:11.112096,13.13470384,.0001754,87.8958,320.2857,98.1977,261.9351,0,U,48045,999,25346,.3327E-3,.134E-5,0
ONEWEB-0116,2021-025E,2026-06-16T16:04:09.057792,13.13468230,.0001708,87.8961,320.3201,93.9803,266.1521,0,U,48046,999,25358,-.48622E-3,-.165E-5,0
ONEWEB-0150,2021-025F,2026-06-16T17:19:44.230080,13.13470614,.0001998,87.8962,320.3072,93.8407,266.2950,0,U,48047,999,25348,.95717E-3,.362E-5,0
ONEWEB-0107,2021-025G,2026-06-16T17:22:10.566624,13.13469716,.000199,87.8963,320.3028,102.4848,257.6504,0,U,48048,999,25346,.72817E-3,.279E-5,0
ONEWEB-0101,2021-025H,2026-06-16T20:07:55.333632,13.13470666,.0001794,87.8951,320.2953,101.7731,258.3600,0,U,48049,999,25345,-.10386E-2,-.367E-5,0
ONEWEB-0113,2021-025J,2026-06-16T20:43:09.639264,13.13894128,.0001849,87.8957,320.2010,93.5766,266.5575,0,U,48050,999,25356,.45887E-3,.181E-5,0
ONEWEB-0112,2021-025K,2026-06-16T15:39:47.397024,13.13470127,.0001789,87.8963,320.3148,104.8256,255.3071,0,U,48051,999,25352,.82947E-3,.316E-5,0
ONEWEB-0156,2021-025L,2026-06-16T15:51:58.289184,13.13469736,.0001951,87.8962,320.3231,98.0998,262.0353,0,U,48052,999,25350,.24865E-3,.104E-5,0
ONEWEB-0161,2021-025M,2026-06-16T20:44:29.692320,13.13471142,.0001983,87.8960,320.2841,99.5576,260.5778,0,U,48053,999,25346,.59947E-3,.232E-5,0
ONEWEB-0158,2021-025N,2026-06-16T16:06:36.043200,13.13471705,.0001591,87.8962,320.3194,95.4757,264.6554,0,U,48054,999,25356,-.40597E-3,-.136E-5,0
ONEWEB-0157,2021-025P,2026-06-16T20:22:33.947328,13.13470293,.0002085,87.8957,320.2900,106.3782,253.7577,0,U,48055,999,25352,-.41241E-3,-.138E-5,0
